{
  "norad_id": 43146,
  "name": "LKW-3",
  "history": [
    {
      "epoch": "2026-04-11T20:52:10.815168Z",
      "apogee_km": 466.1780410675128,
      "perigee_km": 461.70742616956704,
      "latitude_deg": 4.588733736982688e-06,
      "longitude_deg": 106.82037065422367,
      "height_km": 469.1363750502129,
      "semi_major_axis_km": 6842.07973361854,
      "eccentricity": 0.0003267,
      "inclination_deg": 97.6535,
      "raan_deg": 259.9483,
      "arg_perigee_deg": 159.4406,
      "mean_anomaly_deg": 200.6968,
      "mean_motion_rev_day": 15.33983067
    },
    {
      "epoch": "2026-04-13T07:18:42.903072Z",
      "apogee_km": 466.25228124313617,
      "perigee_km": 461.5508428656058,
      "latitude_deg": 2.913567894760883e-05,
      "longitude_deg": -49.74092556751694,
      "height_km": 469.1749588091007,
      "semi_major_axis_km": 6842.03856205437,
      "eccentricity": 0.00034357,
      "inclination_deg": 97.654,
      "raan_deg": 261.4352,
      "arg_perigee_deg": 157.5742,
      "mean_anomaly_deg": 202.5651,
      "mean_motion_rev_day": 15.33996913
    },
    {
      "epoch": "2026-04-14T20:53:05.215200Z",
      "apogee_km": 466.23728603004747,
      "perigee_km": 461.4232778504738,
      "latitude_deg": 2.1476509741552353e-06,
      "longitude_deg": 106.74584984796232,
      "height_km": 469.03193955966907,
      "semi_major_axis_km": 6841.96728194026,
      "eccentricity": 0.0003518,
      "inclination_deg": 97.6533,
      "raan_deg": 263.058,
      "arg_perigee_deg": 150.8351,
      "mean_anomaly_deg": 209.3088,
      "mean_motion_rev_day": 15.34020885
    },
    {
      "epoch": "2026-04-15T20:22:03.324576Z",
      "apogee_km": 466.1932127727159,
      "perigee_km": 461.3929146400196,
      "latitude_deg": 1.6104124054874114e-05,
      "longitude_deg": 114.5536228153944,
      "height_km": 468.93809276806616,
      "semi_major_axis_km": 6841.930063706367,
      "eccentricity": 0.0003508,
      "inclination_deg": 97.6532,
      "raan_deg": 264.0723,
      "arg_perigee_deg": 148.4524,
      "mean_anomaly_deg": 211.6929,
      "mean_motion_rev_day": 15.34033402
    },
    {
      "epoch": "2026-04-16T19:51:00.599328Z",
      "apogee_km": 466.2374079355095,
      "perigee_km": 461.2455733887209,
      "latitude_deg": -2.9210455310203565e-05,
      "longitude_deg": 122.3644907966685,
      "height_km": 468.9259659604373,
      "semi_major_axis_km": 6841.878490662115,
      "eccentricity": 0.0003648,
      "inclination_deg": 97.6538,
      "raan_deg": 265.0862,
      "arg_perigee_deg": 146.6597,
      "mean_anomaly_deg": 213.4875,
      "mean_motion_rev_day": 15.34050747
    },
    {
      "epoch": "2026-04-17T22:27:48.777408Z",
      "apogee_km": 466.24442290960997,
      "perigee_km": 461.1701006944013,
      "latitude_deg": -5.517427683267688e-05,
      "longitude_deg": 83.21998088228067,
      "height_km": 468.80818630417673,
      "semi_major_axis_km": 6841.844261802005,
      "eccentricity": 0.00037083,
      "inclination_deg": 97.6539,
      "raan_deg": 266.2354,
      "arg_perigee_deg": 142.1016,
      "mean_anomaly_deg": 218.0487,
      "mean_motion_rev_day": 15.34062259
    },
    {
      "epoch": "2026-04-18T20:22:48.774432Z",
      "apogee_km": 466.2076163535585,
      "perigee_km": 461.1077425994772,
      "latitude_deg": 4.6348206069080254e-05,
      "longitude_deg": 114.51659429846572,
      "height_km": 468.6970576931012,
      "semi_major_axis_km": 6841.794679476518,
      "eccentricity": 0.0003727,
      "inclination_deg": 97.6542,
      "raan_deg": 267.1821,
      "arg_perigee_deg": 139.5627,
      "mean_anomaly_deg": 220.5893,
      "mean_motion_rev_day": 15.34078935
    },
    {
      "epoch": "2026-04-19T21:25:38.862624Z",
      "apogee_km": 466.1565233810579,
      "perigee_km": 461.00881350252166,
      "latitude_deg": 2.2227860643788704e-05,
      "longitude_deg": 98.86044172652815,
      "height_km": 468.58408470846774,
      "semi_major_axis_km": 6841.7196684417895,
      "eccentricity": 0.0003762,
      "inclination_deg": 97.6552,
      "raan_deg": 268.2633,
      "arg_perigee_deg": 137.6783,
      "mean_anomaly_deg": 222.475,
      "mean_motion_rev_day": 15.34104164
    },
    {
      "epoch": "2026-04-20T14:38:50.452224Z",
      "apogee_km": 466.26541766882656,
      "perigee_km": 460.88400090676896,
      "latitude_deg": -1.969662069471299e-05,
      "longitude_deg": -159.40163974290098,
      "height_km": 468.6047822099883,
      "semi_major_axis_km": 6841.711709287798,
      "eccentricity": 0.00039328,
      "inclination_deg": 97.6554,
      "raan_deg": 269.0067,
      "arg_perigee_deg": 135.8939,
      "mean_anomaly_deg": 224.2617,
      "mean_motion_rev_day": 15.34106841
    },
    {
      "epoch": "2026-04-21T20:23:25.308672Z",
      "apogee_km": 466.13721551283106,
      "perigee_km": 460.83906100576223,
      "latitude_deg": 1.6913930587273511e-07,
      "longitude_deg": 114.51681706555715,
      "height_km": 468.36008273308687,
      "semi_major_axis_km": 6841.625138259296,
      "eccentricity": 0.0003872,
      "inclination_deg": 97.6556,
      "raan_deg": 270.2919,
      "arg_perigee_deg": 132.0473,
      "mean_anomaly_deg": 228.1099,
      "mean_motion_rev_day": 15.34135959
    },
    {
      "epoch": "2026-04-22T21:26:12.219072Z",
      "apogee_km": 466.0628424807728,
      "perigee_km": 460.77568779907233,
      "latitude_deg": 8.48409206829665e-05,
      "longitude_deg": 98.87422556319022,
      "height_km": 468.18372373295176,
      "semi_major_axis_km": 6841.556265139922,
      "eccentricity": 0.0003864,
      "inclination_deg": 97.6561,
      "raan_deg": 271.3734,
      "arg_perigee_deg": 129.0925,
      "mean_anomaly_deg": 231.0662,
      "mean_motion_rev_day": 15.34159125
    },
    {
      "epoch": "2026-04-23T14:39:21.520800Z",
      "apogee_km": 466.20328090893236,
      "perigee_km": 460.6034801074866,
      "latitude_deg": -7.937388434333525e-06,
      "longitude_deg": -159.37789006746482,
      "height_km": 468.22416374133263,
      "semi_major_axis_km": 6841.54038050821,
      "eccentricity": 0.00040925,
      "inclination_deg": 97.6563,
      "raan_deg": 272.1172,
      "arg_perigee_deg": 127.9976,
      "mean_anomaly_deg": 232.1636,
      "mean_motion_rev_day": 15.34164468
    },
    {
      "epoch": "2026-04-24T20:23:52.493568Z",
      "apogee_km": 466.0674661221692,
      "perigee_km": 460.60249830277644,
      "latitude_deg": -5.206024864825146e-05,
      "longitude_deg": 114.55720322722576,
      "height_km": 467.954419359981,
      "semi_major_axis_km": 6841.4719822124725,
      "eccentricity": 0.0003994,
      "inclination_deg": 97.6557,
      "raan_deg": 273.4028,
      "arg_perigee_deg": 123.8618,
      "mean_anomaly_deg": 236.3004,
      "mean_motion_rev_day": 15.34187475
    },
    {
      "epoch": "2026-04-25T19:52:40.842336Z",
      "apogee_km": 466.0138151118708,
      "perigee_km": 460.46819410133685,
      "latitude_deg": -3.2969346998463216e-05,
      "longitude_deg": 122.40555397821092,
      "height_km": 467.7878105480968,
      "semi_major_axis_km": 6841.378004606604,
      "eccentricity": 0.0004053,
      "inclination_deg": 97.6561,
      "raan_deg": 274.4169,
      "arg_perigee_deg": 121.5328,
      "mean_anomaly_deg": 238.631,
      "mean_motion_rev_day": 15.34219087
    },
    {
      "epoch": "2026-04-26T22:29:18.120192Z",
      "apogee_km": 465.9902136813171,
      "perigee_km": 460.3436750577921,
      "latitude_deg": 5.1183814989013736e-05,
      "longitude_deg": 83.30677039388983,
      "height_km": 467.627518707365,
      "semi_major_axis_km": 6841.303944369554,
      "eccentricity": 0.00041268,
      "inclination_deg": 97.6556,
      "raan_deg": 275.5663,
      "arg_perigee_deg": 118.8947,
      "mean_anomaly_deg": 241.271,
      "mean_motion_rev_day": 15.34244
    },
    {
      "epoch": "2026-04-27T18:50:13.715808Z",
      "apogee_km": 465.9140028091606,
      "perigee_km": 460.31512253027176,
      "latitude_deg": -8.059050263158641e-06,
      "longitude_deg": 138.11913603484217,
      "height_km": 467.435563989958,
      "semi_major_axis_km": 6841.251562669716,
      "eccentricity": 0.0004092,
      "inclination_deg": 97.6555,
      "raan_deg": 276.446,
      "arg_perigee_deg": 115.9446,
      "mean_anomaly_deg": 244.2218,
      "mean_motion_rev_day": 15.34261621
    },
    {
      "epoch": "2026-04-28T21:26:48.038784Z",
      "apogee_km": 465.8203874651417,
      "perigee_km": 460.24346655584395,
      "latitude_deg": 7.766554024143631e-05,
      "longitude_deg": 99.03279824958206,
      "height_km": 467.21937158088633,
      "semi_major_axis_km": 6841.168927010493,
      "eccentricity": 0.0004076,
      "inclination_deg": 97.6555,
      "raan_deg": 277.5955,
      "arg_perigee_deg": 113.0405,
      "mean_anomaly_deg": 247.1268,
      "mean_motion_rev_day": 15.3428942
    },
    {
      "epoch": "2026-04-29T19:21:36.544608Z",
      "apogee_km": 465.85617690234176,
      "perigee_km": 460.1123714805308,
      "latitude_deg": 4.523504164864814e-05,
      "longitude_deg": 130.37794087347987,
      "height_km": 467.09273139575015,
      "semi_major_axis_km": 6841.121274191436,
      "eccentricity": 0.0004198,
      "inclination_deg": 97.6555,
      "raan_deg": 278.5427,
      "arg_perigee_deg": 110.6481,
      "mean_anomaly_deg": 249.5212,
      "mean_motion_rev_day": 15.34305451
    },
    {
      "epoch": "2026-04-30T14:08:34.492704Z",
      "apogee_km": 465.7670621617108,
      "perigee_km": 460.11236497181017,
      "latitude_deg": -1.8444714719626617e-05,
      "longitude_deg": -151.32328192249534,
      "height_km": 466.9380099622074,
      "semi_major_axis_km": 6841.07671356676,
      "eccentricity": 0.00041329,
      "inclination_deg": 97.6555,
      "raan_deg": 279.3543,
      "arg_perigee_deg": 108.6152,
      "mean_anomaly_deg": 251.5539,
      "mean_motion_rev_day": 15.34320442
    }
  ]
}